GALAXY 3C (G-3C)        
1 27445U 02030A   22043.90997618 -.00000147  00000+0  00000+0 0  9998
2 27445   0.0113  45.9039 0001840 281.8107  47.7270  1.00271096 30601
EUTELSAT 5 WEST A       
1 27460U 02035A   22044.35860109 -.00000040  00000+0  00000+0 0  9996
2 27460   2.0105  90.7595 0006013 234.8261 301.8542  1.00273556 71729
METEOSAT-8 (MSG-1)      
1 27509U 02040B   22044.15252994  .00000137  00000+0  00000+0 0  9997
2 27509   7.8083  51.3077 0000788 354.2527 194.0943  1.00280072 71362
INTELSAT 906 (IS-906)   
1 27513U 02041A   22044.44416215  .00000016  00000+0  00000+0 0  9999
2 27513   1.7622  91.9705 0003598 250.4333  25.0761  1.00272957 71130
HISPASAT 30W-4          
1 27528U 02044A   22044.56550231  .00000119  00000+0  00000+0 0  9992
2 27528   2.5245  88.1852 0005116 240.6414 235.2874  1.00271520 27086
TDRS 10                 
1 27566U 02055A   22044.59193050  .00000093  00000+0  00000+0 0  9992
2 27566   7.9772  50.6454 0008710 316.1145 178.8285  1.00276886 70342
NSS-6                   
1 27603U 02057A   22044.59356632  .00000110  00000+0  00000+0 0  9993
2 27603   1.2984  93.1156 0003539 231.4307 223.1546  1.00272190 70157
NIMIQ 2                 
1 27632U 02062A   22044.44476036 -.00000138  00000+0  00000+0 0  9997
2 27632   5.7176  71.5428 0008631 281.5715 219.4347  0.99998097 28293
USA 167                 
1 27691U 03008A   22044.57689747  .00000057  00000+0  00000+0 0  9991
2 27691   7.7998  55.3972 0002038 313.7303 212.0387  1.00270254 17069
USA 169 (MILSTAR-2 4)   
1 27711U 03012A   22044.40576601 -.00000191  00000+0  00000+0 0  9995
2 27711   9.9396  41.0280 0002752 274.9219 125.6898  1.00272041 17061
GALAXY 12 (G-12)        
1 27715U 03013B   22044.57775715  .00000060  00000+0  00000+0 0  9999
2 27715   2.9622  86.8582 0002346 249.4915 246.1950  1.00271961 36206
ASIASAT 4               
1 27718U 03014A   22044.51847206 -.00000165  00000+0  00000+0 0  9999
2 27718   0.6571  95.8449 0004345 231.6019  79.6160  1.00549724 29409
HELLAS-SAT 2            
1 27811U 03020A   22044.47133351 -.00000271  00000+0  00000+0 0  9992
2 27811   3.3782  85.9327 0007020 233.8314 302.8169  1.00521091 26951
THURAYA-2               
1 27825U 03026A   22044.51193069  .00000131  00000+0  00000+0 0  9994
2 27825   6.5843  34.3000 0003379 249.2037  88.2812  1.00272285 68450
OPTUS C1                
1 27831U 03028B   22044.61626554 -.00000149  00000+0  00000+0 0  9994
2 27831   2.8912  87.8342 0005795 237.6308 195.7022  1.00271485 37174
GALAXY 23 (G-23)        
1 27854U 03034A   22044.58369535  .00000016  00000+0  00000+0 0  9997
2 27854   0.0510 262.0355 0002865  68.7660 261.8996  1.00272503 67858
USA 170                 
1 27875U 03040A   22044.42288090 -.00000271  00000+0  00000+0 0  9990
2 27875   7.1223  60.7355 0002121 247.7083 304.6657  1.00278659 17073
GALAXY 13 (HORIZONS 1)  
1 27954U 03044A   22044.57911988  .00000052  00000+0  00000+0 0  9993
2 27954   0.0234  97.1191 0000494 236.8058 251.0919  1.00270469 30688
YAMAL 202               
1 28089U 03053A   22044.63265223 -.00000078  00000+0  00000+0 0  9993
2 28089   2.3265  89.3468 0002333 245.5060 199.9989  1.00272464 66796
UFO 11 (USA 174)        
1 28117U 03057A   22044.51803597 -.00000092  00000+0  00000+0 0  9994
2 28117   6.8131  37.9224 0004073 333.5053  33.3447  1.00270738 66568
USA 176 (DSP 22)        
1 28158U 04004A   22044.44878471 -.00000214  00000+0  00000+0 0  9993
2 28158   9.9303  35.9478 0000928 331.6224  24.7595  1.00269729 17035
ABS-4 (MOBISAT-1)       
1 28184U 04007A   22044.51533221  .00000042  00000+0  00000+0 0  9992
2 28184   2.0114  90.5481 0005212 241.0095  58.4471  1.00273746 36447
EUTELSAT 7A             
1 28187U 04008A   22044.61956789  .00000107  00000+0  00000+0 0  9997
2 28187   1.7990  89.3587 0004313 233.6013 264.4558  1.00271635 65463
AMC-11 (GE-11)          
1 28252U 04017A   22044.57568101  .00000073  00000+0  00000+0 0  9994
2 28252   0.0589 289.3503 0003086  30.9648 259.4898  1.00270601 64990
INTELSAT 10-02          
1 28358U 04022A   22044.00050865 -.00000008  00000+0  00000+0 0  9997
2 28358   0.0608 273.6843 0000898  43.8113 184.6832  1.00271890 64651
ANIK F2                 
1 28378U 04027A   22044.43991880 -.00000046  00000+0  00000+0 0  9994
2 28378   0.0386  95.7429 0001820 101.1354 353.8349  1.00271755 25379
AMC-15                  
1 28446U 04041A   22044.59743672 -.00000085  00000+0  00000+0 0  9990
2 28446   0.0408 300.1559 0002997  30.1720 283.2768  1.00272509 63439
NSS-10 (AMC-12)         
1 28526U 05003A   22044.49562090 -.00000249  00000+0  00000+0 0  9992
2 28526   2.4759  88.6987 0003314 223.9850 331.7676  1.00271128 37261
XTAR-EUR                
1 28542U 05005A   22043.52344180  .00000155  00000+0  00000+0 0  9998
2 28542   0.2624  96.3168 0003150 231.5213  32.1166  1.00270831 62296
XM-3 (RHYTHM)           
1 28626U 05008A   22044.52882937 -.00000202  00000+0  00000+0 0  9996
2 28626   0.0111  75.9822 0000609   1.3268 171.4773  1.00273070 26735
INMARSAT 4-F1           
1 28628U 05009A   22044.45994863 -.00000257  00000+0  00000+0 0  9993
2 28628   3.5224  33.7427 0003027 293.6890 125.0988  1.00273013 61781
DIRECTV 8               
1 28659U 05019A   22044.58598601  .00000005  00000+0  00000+0 0  9992
2 28659   0.0181 107.4085 0003176 218.2000 269.8636  1.00271534 61186
GALAXY 28 (G-28)        
1 28702U 05022A   22044.52701223 -.00000182  00000+0  00000+0 0  9992
2 28702   0.0049 325.5822 0001876  23.2698 255.3895  1.00273412 36098
EXPRESS-AM3             
1 28707U 05023A   22044.59278197 -.00000263  00000+0  00000+0 0  9994
2 28707   3.2795  85.0604 0001815 292.2299  69.2911  1.00470495 60953
THAICOM 4               
1 28786U 05028A   22044.52693222 -.00000360  00000+0  00000+0 0  9997
2 28786   0.0124  91.8609 0002881 231.1019 129.7548  1.00273323 36375
GALAXY 14 (G-14)        
1 28790U 05030A   22044.50966302  .00000158  00000+0  00000+0 0  9999
2 28790   0.9503  93.5517 0002191 229.7274  36.5837  1.00273261 60416
ANIK F1R                
1 28868U 05036A   22044.59514809 -.00000071  00000+0  00000+0 0  9996
2 28868   0.2485  94.1073 0002854 273.2676 243.1555  1.00272656 30567
GALAXY 15 (G-15)        
1 28884U 05041A   22044.57453663  .00000082  00000+0  00000+0 0  9999
2 28884   0.0228 275.7223 0001526  53.8494 247.8007  1.00271110 59723
SYRACUSE 3A             
1 28885U 05041B   22044.51245400  .00000131  00000+0  00000+0 0  9997
2 28885   0.8112  94.9188 0002636 230.3608  49.6755  1.00273126 59858
INMARSAT 4-F2           
1 28899U 05044A   22044.51585551  .00000014  00000+0  00000+0 0  9999
2 28899   3.4079  36.2003 0002984 290.4520  66.4566  1.00271886 59628
SPACEWAY 2              
1 28903U 05046B   22044.56865931  .00000106  00000+0  00000+0 0  9997
2 28903   1.6198  89.2209 0000148  95.7078  24.4386  1.00271955 35452
METEOSAT-9 (MSG-2)      
1 28912U 05049B   22044.28963696  .00000079  00000+0  00000+0 0  9995
2 28912   5.7418  67.0848 0001444 225.0046 324.5479  1.00411310 59182
EUTELSAT 174A           
1 28924U 05052A   22044.57860934  .00000013  00000+0  00000+0 0  9993
2 28924   0.2008  90.2453 0006338 235.6912 199.9138  1.00273084 36440
ECHOSTAR 10             
1 28935U 06003A   22044.59286247 -.00000052  00000+0  00000+0 0  9997
2 28935   0.0668 283.2691 0001367  57.4405 266.0904  1.00272986 58580
SPAINSAT                
1 28945U 06007A   22043.68676223 -.00000212  00000+0  00000+0 0  9996
2 28945   0.0504 259.1753 0004297  36.1814  64.5726  1.00272068 58320
EUTELSAT HOTBIRD 13E    
1 28946U 06007B   22044.36217703  .00000090  00000+0  00000+0 0  9990
2 28946   0.0723 239.4755 0003703  63.1552 344.0774  1.00271502 58429
JCSAT-5A                
1 29045U 06010A   22044.45768096 -.00000325  00000+0  00000+0 0  9993
2 29045   0.0151 189.5544 0001635 156.0018  94.7081  1.00272325 57868
ASTRA 1KR               
1 29055U 06012A   22044.29164299  .00000123  00000+0  00000+0 0  9998
2 29055   0.0823 275.2489 0004334   3.8060 348.4217  1.00270468 57856
EWS-G1 (GOES 13)        
1 29155U 06018A   22044.51541942  .00000039  00000+0  00000+0 0  9990
2 29155   0.4743  98.7576 0004345 161.1175 130.7594  1.00269373 27483
EUTELSAT 113 WEST A     
1 29162U 06020A   22044.59057149 -.00000034  00000+0  00000+0 0  9996
2 29162   0.0341 272.6383 0003000  57.1130 273.4205  1.00271241 57587
GALAXY 16 (G-16)        
1 29236U 06023A   22044.03868905 -.00000123  00000+0  00000+0 0  9999
2 29236   0.0128 110.7702 0002877 211.0565  96.1074  1.00271330 57070
EUTELSAT HOTBIRD 13B    
1 29270U 06032A   22044.36217703  .00000090  00000+0  00000+0 0  9999
2 29270   0.0785 332.9414 0005862 356.1919 317.5900  1.00270979 31412
JCSAT-3A                
1 29272U 06033A   22044.52867659 -.00000342  00000+0  00000+0 0  9992
2 29272   0.0338 252.8044 0002234  62.6771 146.3633  1.00271158 31851
SYRACUSE 3B             
1 29273U 06033B   22044.35851387 -.00000041  00000+0  00000+0 0  9991
2 29273   0.0137 128.6174 0003528 197.4215 301.1661  1.00271972 56819
KOREASAT 5 (MUGUNGWHA 5)
1 29349U 06034A   22044.52562396 -.00000355  00000+0  00000+0 0  9992
2 29349   0.0206 125.4607 0001745 170.2948 150.0404  1.00272205 25426
DIRECTV 9S              
1 29494U 06043A   22044.55005183 -.00000110  00000+0  00000+0 0  9991
2 29494   0.0198 138.7456 0003165 183.3190 278.2758  1.00272776 35494
OPTUS D1                
1 29495U 06043B   22044.56722449 -.00000108  00000+0  00000+0 0  9991
2 29495   0.0084 280.4603 0003627  45.4164 181.8713  1.00272268 56231
XM-4 (BLUES)            
1 29520U 06049A   22044.43642240 -.00000019  00000+0  00000+0 0  9993
2 29520   0.0624 289.7767 0002086  24.9422 230.5904  1.00271905 35586
BADR-4                  
1 29526U 06051A   22044.50818031  .00000148  00000+0  00000+0 0  9995
2 29526   0.0386  10.5345 0006234 314.8177  27.0569  1.00273131 35372
